{
  "type": "FeatureCollection",
  "features": [
    {
      "type": "Feature",
      "properties": {
        "norad_id": 67033,
        "name": "STARLINK-36137",
        "group": "last-30-days",
        "lat": -35.82776353703691,
        "lon": -36.839640277061726,
        "alt_km": 384.8242563965214,
        "timestamp": "2025-12-27T11:23:18.581806+00:00",
        "meta_object_name": "STARLINK-36137",
        "meta_object_id": "2025-294D",
        "meta_epoch": "2025-12-27T04:00:01.998720",
        "meta_mean_motion": 15.63006352,
        "meta_eccentricity": 0.0001575,
        "meta_inclination": 42.9989,
        "meta_ra_of_asc_node": 94.2069,
        "meta_arg_of_pericenter": 267.5327,
        "meta_mean_anomaly": 38.1143,
        "meta_ephemeris_type": 0,
        "meta_classification_type": "U",
        "meta_norad_cat_id": 67033,
        "meta_element_set_no": 999,
        "meta_rev_at_epoch": 242,
        "meta_bstar": -0.023225,
        "meta_mean_motion_dot": -0.0191663,
        "meta_mean_motion_ddot": 0,
        "tle_line1": "1 67033U 25294D   25361.16668980 -.01916630  00000+0 -23225-1 0  9994",
        "tle_line2": "2 67033  42.9989  94.2069 0001575 267.5327  38.1143 15.63006352  2421"
      },
      "geometry": {
        "type": "Point",
        "coordinates": [
          -36.839640277061726,
          -35.82776353703691
        ]
      }
    },
    {
      "type": "Feature",
      "properties": {
        "norad_id": 67034,
        "name": "STARLINK-36140",
        "group": "last-30-days",
        "lat": -37.47926261541498,
        "lon": -32.26448268603164,
        "alt_km": 384.9629915666019,
        "timestamp": "2025-12-27T11:23:18.581816+00:00",
        "meta_object_name": "STARLINK-36140",
        "meta_object_id": "2025-294E",
        "meta_epoch": "2025-12-26T22:00:01.999584",
        "meta_mean_motion": 15.64080595,
        "meta_eccentricity": 0.00015735,
        "meta_inclination": 42.9993,
        "meta_ra_of_asc_node": 95.6881,
        "meta_arg_of_pericenter": 278.3499,
        "meta_mean_anomaly": 62.4736,
        "meta_ephemeris_type": 0,
        "meta_classification_type": "U",
        "meta_norad_cat_id": 67034,
        "meta_element_set_no": 999,
        "meta_rev_at_epoch": 238,
        "meta_bstar": -0.023008729,
        "meta_mean_motion_dot": -0.01973992,
        "meta_mean_motion_ddot": 0,
        "tle_line1": "1 67034U 25294E   25360.91668981 -.01973992  00000+0 -23009-1 0  9992",
        "tle_line2": "2 67034  42.9993  95.6881 0001573 278.3499  62.4736 15.64080595  2387"
      },
      "geometry": {
        "type": "Point",
        "coordinates": [
          -32.26448268603164,
          -37.47926261541498
        ]
      }
    },
    {
      "type": "Feature",
      "properties": {
        "norad_id": 67035,
        "name": "STARLINK-36085",
        "group": "last-30-days",
        "lat": -38.969516734884444,
        "lon": -27.40876669033831,
        "alt_km": 385.13916756448543,
        "timestamp": "2025-12-27T11:23:18.581826+00:00",
        "meta_object_name": "STARLINK-36085",
        "meta_object_id": "2025-294F",
        "meta_epoch": "2025-12-27T04:00:01.998720",
        "meta_mean_motion": 15.62957865,
        "meta_eccentricity": 0.00015,
        "meta_inclination": 42.9992,
        "meta_ra_of_asc_node": 94.1863,
        "meta_arg_of_pericenter": 271.7067,
        "meta_mean_anomaly": 42.1403,
        "meta_ephemeris_type": 0,
        "meta_classification_type": "U",
        "meta_norad_cat_id": 67035,
        "meta_element_set_no": 999,
        "meta_rev_at_epoch": 242,
        "meta_bstar": -0.023341,
        "meta_mean_motion_dot": -0.01921769,
        "meta_mean_motion_ddot": 0,
        "tle_line1": "1 67035U 25294F   25361.16668980 -.01921769  00000+0 -23341-1 0  9994",
        "tle_line2": "2 67035  42.9992  94.1863 0001500 271.7067  42.1403 15.62957865  2421"
      },
      "geometry": {
        "type": "Point",
        "coordinates": [
          -27.40876669033831,
          -38.969516734884444
        ]
      }
    },
    {
      "type": "Feature",
      "properties": {
        "norad_id": 67036,
        "name": "STARLINK-36125",
        "group": "last-30-days",
        "lat": -38.249598294119814,
        "lon": -29.86088723827237,
        "alt_km": 385.050965472803,
        "timestamp": "2025-12-27T11:23:18.581838+00:00",
        "meta_object_name": "STARLINK-36125",
        "meta_object_id": "2025-294G",
        "meta_epoch": "2025-12-27T04:00:01.998720",
        "meta_mean_motion": 15.62972014,
        "meta_eccentricity": 0.0001509,
        "meta_inclination": 42.999,
        "meta_ra_of_asc_node": 94.1912,
        "meta_arg_of_pericenter": 269.3844,
        "meta_mean_anomaly": 42.3928,
        "meta_ephemeris_type": 0,
        "meta_classification_type": "U",
        "meta_norad_cat_id": 67036,
        "meta_element_set_no": 999,
        "meta_rev_at_epoch": 261,
        "meta_bstar": -0.023309,
        "meta_mean_motion_dot": -0.01920384,
        "meta_mean_motion_ddot": 0,
        "tle_line1": "1 67036U 25294G   25361.16668980 -.01920384  00000+0 -23309-1 0  9991",
        "tle_line2": "2 67036  42.9990  94.1912 0001509 269.3844  42.3928 15.62972014  2618"
      },
      "geometry": {
        "type": "Point",
        "coordinates": [
          -29.86088723827237,
          -38.249598294119814
        ]
      }
    },
    {
      "type": "Feature",
      "properties": {
        "norad_id": 67037,
        "name": "STARLINK-35732",
        "group": "last-30-days",
        "lat": -39.65210952441231,
        "lon": -24.847091893841835,
        "alt_km": 385.16594701321355,
        "timestamp": "2025-12-27T11:23:18.581850+00:00",
        "meta_object_name": "STARLINK-35732",
        "meta_object_id": "2025-294H",
        "meta_epoch": "2025-12-27T04:00:01.998720",
        "meta_mean_motion": 15.62939668,
        "meta_eccentricity": 0.0001571,
        "meta_inclination": 42.9991,
        "meta_ra_of_asc_node": 94.181,
        "meta_arg_of_pericenter": 271.8548,
        "meta_mean_anomaly": 44.1164,
        "meta_ephemeris_type": 0,
        "meta_classification_type": "U",
        "meta_norad_cat_id": 67037,
        "meta_element_set_no": 999,
        "meta_rev_at_epoch": 253,
        "meta_bstar": -0.023394,
        "meta_mean_motion_dot": -0.01924442,
        "meta_mean_motion_ddot": 0,
        "tle_line1": "1 67037U 25294H   25361.16668980 -.01924442  00000+0 -23394-1 0  9995",
        "tle_line2": "2 67037  42.9991  94.1810 0001571 271.8548  44.1164 15.62939668  2536"
      },
      "geometry": {
        "type": "Point",
        "coordinates": [
          -24.847091893841835,
          -39.65210952441231
        ]
      }
    },
    {
      "type": "Feature",
      "properties": {
        "norad_id": 67038,
        "name": "STARLINK-35775",
        "group": "last-30-days",
        "lat": -40.246113255218326,
        "lon": -22.373698494434105,
        "alt_km": 385.21425454822656,
        "timestamp": "2025-12-27T11:23:18.581860+00:00",
        "meta_object_name": "STARLINK-35775",
        "meta_object_id": "2025-294J",
        "meta_epoch": "2025-12-27T04:00:01.998720",
        "meta_mean_motion": 15.62927526,
        "meta_eccentricity": 0.0001518,
        "meta_inclination": 42.999,
        "meta_ra_of_asc_node": 94.1754,
        "meta_arg_of_pericenter": 270.6852,
        "meta_mean_anomaly": 47.2885,
        "meta_ephemeris_type": 0,
        "meta_classification_type": "U",
        "meta_norad_cat_id": 67038,
        "meta_element_set_no": 999,
        "meta_rev_at_epoch": 253,
        "meta_bstar": -0.023286,
        "meta_mean_motion_dot": -0.01915745,
        "meta_mean_motion_ddot": 0,
        "tle_line1": "1 67038U 25294J   25361.16668980 -.01915745  00000+0 -23286-1 0  9992",
        "tle_line2": "2 67038  42.9990  94.1754 0001518 270.6852  47.2885 15.62927526  2533"
      },
      "geometry": {
        "type": "Point",
        "coordinates": [
          -22.373698494434105,
          -40.246113255218326
        ]
      }
    },
    {
      "type": "Feature",
      "properties": {
        "norad_id": 67039,
        "name": "STARLINK-35705",
        "group": "last-30-days",
        "lat": -41.28165955852364,
        "lon": -17.243281460498725,
        "alt_km": 385.3286442423496,
        "timestamp": "2025-12-27T11:23:18.581870+00:00",
        "meta_object_name": "STARLINK-35705",
        "meta_object_id": "2025-294K",
        "meta_epoch": "2025-12-27T04:00:01.998720",
        "meta_mean_motion": 15.62904579,
        "meta_eccentricity": 0.0001458,
        "meta_inclination": 42.9992,
        "meta_ra_of_asc_node": 94.1656,
        "meta_arg_of_pericenter": 270.2664,
        "meta_mean_anomaly": 51.7644,
        "meta_ephemeris_type": 0,
        "meta_classification_type": "U",
        "meta_norad_cat_id": 67039,
        "meta_element_set_no": 999,
        "meta_rev_at_epoch": 242,
        "meta_bstar": -0.023282,
        "meta_mean_motion_dot": -0.01913881,
        "meta_mean_motion_ddot": 0,
        "tle_line1": "1 67039U 25294K   25361.16668980 -.01913881  00000+0 -23282-1 0  9998",
        "tle_line2": "2 67039  42.9992  94.1656 0001458 270.2664  51.7644 15.62904579  2421"
      },
      "geometry": {
        "type": "Point",
        "coordinates": [
          -17.243281460498725,
          -41.28165955852364
        ]
      }
    }
  ]
}